CCSDS_OMM_VERS = 2.0
CREATION_DATE  = 
ORIGINATOR     = 

OBJECT_NAME    = STARLINK-35686
OBJECT_ID      = 2025-257AD
CENTER_NAME    = EARTH
REF_FRAME      = TEME
TIME_SYSTEM    = UTC
MEAN_ELEMENT_THEORY = SGP/SGP4

EPOCH          = 2025-11-19T22:00:01.999584
MEAN_MOTION    = 15.82540325
ECCENTRICITY   = .00007148
INCLINATION    = 53.1529
RA_OF_ASC_NODE = 14.1431
ARG_OF_PERICENTER = 88.8174
MEAN_ANOMALY   = 329.2355

EPHEMERIS_TYPE = 0
CLASSIFICATION_TYPE = U
NORAD_CAT_ID   = 66407
ELEMENT_SET_NO = 999
REV_AT_EPOCH   = 282
BSTAR          = -.9173346E-2
MEAN_MOTION_DOT = -.1696526E-1
MEAN_MOTION_DDOT = 0

CCSDS_OMM_VERS = 2.0
CREATION_DATE  = 
ORIGINATOR     = 

OBJECT_NAME    = STARLINK-35679
OBJECT_ID      = 2025-257AE
CENTER_NAME    = EARTH
REF_FRAME      = TEME
TIME_SYSTEM    = UTC
MEAN_ELEMENT_THEORY = SGP/SGP4

EPOCH          = 2025-11-19T22:00:01.999584
MEAN_MOTION    = 15.82507795
ECCENTRICITY   = .00010432
INCLINATION    = 53.1529
RA_OF_ASC_NODE = 14.1381
ARG_OF_PERICENTER = 68.0883
MEAN_ANOMALY   = 352.4988

EPHEMERIS_TYPE = 0
CLASSIFICATION_TYPE = U
NORAD_CAT_ID   = 66408
ELEMENT_SET_NO = 999
REV_AT_EPOCH   = 282
BSTAR          = -.92576577E-2
MEAN_MOTION_DOT = -.1707955E-1
MEAN_MOTION_DDOT = 0

CCSDS_OMM_VERS = 2.0
CREATION_DATE  = 
ORIGINATOR     = 

OBJECT_NAME    = CHUTIAN-2 A
OBJECT_ID      = 2025-256A
CENTER_NAME    = EARTH
REF_FRAME      = TEME
TIME_SYSTEM    = UTC
MEAN_ELEMENT_THEORY = SGP/SGP4

EPOCH          = 2025-11-19T22:51:33.670656
MEAN_MOTION    = 14.50072431
ECCENTRICITY   = .00114904
INCLINATION    = 98.2795
RA_OF_ASC_NODE = 29.1126
ARG_OF_PERICENTER = 253.6586
MEAN_ANOMALY   = 106.3346

EPHEMERIS_TYPE = 0
CLASSIFICATION_TYPE = U
NORAD_CAT_ID   = 66409
ELEMENT_SET_NO = 999
REV_AT_EPOCH   = 157
BSTAR          = .29939542E-4
MEAN_MOTION_DOT = .72E-6
MEAN_MOTION_DDOT = 0

CCSDS_OMM_VERS = 2.0
CREATION_DATE  = 
ORIGINATOR     = 

OBJECT_NAME    = CHUTIAN-2 B
OBJECT_ID      = 2025-256B
CENTER_NAME    = EARTH
REF_FRAME      = TEME
TIME_SYSTEM    = UTC
MEAN_ELEMENT_THEORY = SGP/SGP4

EPOCH          = 2025-11-19T16:11:59.283744
MEAN_MOTION    = 14.50980157
ECCENTRICITY   = .0012697
INCLINATION    = 98.2822
RA_OF_ASC_NODE = 28.8492
ARG_OF_PERICENTER = 255.1849
MEAN_ANOMALY   = 104.7939

EPHEMERIS_TYPE = 0
CLASSIFICATION_TYPE = U
NORAD_CAT_ID   = 66410
ELEMENT_SET_NO = 999
REV_AT_EPOCH   = 153
BSTAR          = .21592752E-3
MEAN_MOTION_DOT = .81E-5
MEAN_MOTION_DDOT = 0

CCSDS_OMM_VERS = 2.0
CREATION_DATE  = 
ORIGINATOR     = 

OBJECT_NAME    = ZK-1A R/B
OBJECT_ID      = 2025-256C
CENTER_NAME    = EARTH
REF_FRAME      = TEME
TIME_SYSTEM    = UTC
MEAN_ELEMENT_THEORY = SGP/SGP4

EPOCH          = 2025-11-18T14:11:15.300384
MEAN_MOTION    = 15.01170804
ECCENTRICITY   = .02327186
INCLINATION    = 98.3241
RA_OF_ASC_NODE = 28.6261
ARG_OF_PERICENTER = 325.5475
MEAN_ANOMALY   = 33.0843

EPHEMERIS_TYPE = 0
CLASSIFICATION_TYPE = U
NORAD_CAT_ID   = 66411
ELEMENT_SET_NO = 999
REV_AT_EPOCH   = 142
BSTAR          = .13989627E-3
MEAN_MOTION_DOT = .3121E-4
MEAN_MOTION_DDOT = 0

CCSDS_OMM_VERS = 2.0
CREATION_DATE  = 
ORIGINATOR     = 

OBJECT_NAME    = HULIANWANG DIGUI 13A
OBJECT_ID      = 2025-258A
CENTER_NAME    = EARTH
REF_FRAME      = TEME
TIME_SYSTEM    = UTC
MEAN_ELEMENT_THEORY = SGP/SGP4

EPOCH          = 2025-11-19T23:15:10.419840
MEAN_MOTION    = 14.25710295
ECCENTRICITY   = .00138512
INCLINATION    = 50.0050
RA_OF_ASC_NODE = 357.8507
ARG_OF_PERICENTER = 279.0741
MEAN_ANOMALY   = 80.8605

EPHEMERIS_TYPE = 0
CLASSIFICATION_TYPE = U
NORAD_CAT_ID   = 66412
ELEMENT_SET_NO = 999
REV_AT_EPOCH   = 141
BSTAR          = .5975692E-5
MEAN_MOTION_DOT = -.146E-5
MEAN_MOTION_DDOT = 0

CCSDS_OMM_VERS = 2.0
CREATION_DATE  = 
ORIGINATOR     = 

OBJECT_NAME    = HULIANWANG DIGUI 13B
OBJECT_ID      = 2025-258B
CENTER_NAME    = EARTH
REF_FRAME      = TEME
TIME_SYSTEM    = UTC
MEAN_ELEMENT_THEORY = SGP/SGP4

EPOCH          = 2025-11-19T19:55:07.318848
MEAN_MOTION    = 14.23477682
ECCENTRICITY   = .00135328
INCLINATION    = 50.0068
RA_OF_ASC_NODE = 358.4427
ARG_OF_PERICENTER = 278.6455
MEAN_ANOMALY   = 81.2925

EPHEMERIS_TYPE = 0
CLASSIFICATION_TYPE = U
NORAD_CAT_ID   = 66413
ELEMENT_SET_NO = 999
REV_AT_EPOCH   = 139
BSTAR          = .28014924E-4
MEAN_MOTION_DOT = -.95E-6
MEAN_MOTION_DDOT = 0

CCSDS_OMM_VERS = 2.0
CREATION_DATE  = 
ORIGINATOR     = 

OBJECT_NAME    = HULIANWANG DIGUI 13C
OBJECT_ID      = 2025-258C
CENTER_NAME    = EARTH
REF_FRAME      = TEME
TIME_SYSTEM    = UTC
MEAN_ELEMENT_THEORY = SGP/SGP4

EPOCH          = 2025-11-19T19:52:21.139680
MEAN_MOTION    = 14.25515031
ECCENTRICITY   = .00133918
INCLINATION    = 50.0085
RA_OF_ASC_NODE = 358.4424
ARG_OF_PERICENTER = 277.0637
MEAN_ANOMALY   = 82.8754

EPHEMERIS_TYPE = 0
CLASSIFICATION_TYPE = U
NORAD_CAT_ID   = 66414
ELEMENT_SET_NO = 999
REV_AT_EPOCH   = 139
BSTAR          = .28683165E-4
MEAN_MOTION_DOT = -.92E-6
MEAN_MOTION_DDOT = 0

CCSDS_OMM_VERS = 2.0
CREATION_DATE  = 
ORIGINATOR     = 

OBJECT_NAME    = HULIANWANG DIGUI 13D
OBJECT_ID      = 2025-258D
CENTER_NAME    = EARTH
REF_FRAME      = TEME
TIME_SYSTEM    = UTC
MEAN_ELEMENT_THEORY = SGP/SGP4

EPOCH          = 2025-11-19T19:51:27.620064
MEAN_MOTION    = 14.25899174
ECCENTRICITY   = .00130788
INCLINATION    = 50.0049
RA_OF_ASC_NODE = 358.4374
ARG_OF_PERICENTER = 283.7525
MEAN_ANOMALY   = 76.1933

EPHEMERIS_TYPE = 0
CLASSIFICATION_TYPE = U
NORAD_CAT_ID   = 66415
ELEMENT_SET_NO = 999
REV_AT_EPOCH   = 139
BSTAR          = .27652215E-4
MEAN_MOTION_DOT = -.94E-6
MEAN_MOTION_DDOT = 0

CCSDS_OMM_VERS = 2.0
CREATION_DATE  = 
ORIGINATOR     = 

OBJECT_NAME    = HULIANWANG DIGUI 13E
OBJECT_ID      = 2025-258E
CENTER_NAME    = EARTH
REF_FRAME      = TEME
TIME_SYSTEM    = UTC
MEAN_ELEMENT_THEORY = SGP/SGP4

EPOCH          = 2025-11-19T23:12:05.374368
MEAN_MOTION    = 14.25961121
ECCENTRICITY   = .00123741
INCLINATION    = 50.0058
RA_OF_ASC_NODE = 357.8428
ARG_OF_PERICENTER = 282.4671
MEAN_ANOMALY   = 77.4858

EPHEMERIS_TYPE = 0
CLASSIFICATION_TYPE = U
NORAD_CAT_ID   = 66416
ELEMENT_SET_NO = 999
REV_AT_EPOCH   = 141
BSTAR          = .19441609E-4
MEAN_MOTION_DOT = -.114E-5
MEAN_MOTION_DDOT = 0

CCSDS_OMM_VERS = 2.0
CREATION_DATE  = 
ORIGINATOR     = 

OBJECT_NAME    = HULIANWANG DIGUI 13F
OBJECT_ID      = 2025-258F
CENTER_NAME    = EARTH
REF_FRAME      = TEME
TIME_SYSTEM    = UTC
MEAN_ELEMENT_THEORY = SGP/SGP4

EPOCH          = 2025-11-19T19:49:44.262336
MEAN_MOTION    = 14.26074605
ECCENTRICITY   = .00123821
INCLINATION    = 50.0021
RA_OF_ASC_NODE = 358.4189
ARG_OF_PERICENTER = 283.8909
MEAN_ANOMALY   = 76.0628

EPHEMERIS_TYPE = 0
CLASSIFICATION_TYPE = U
NORAD_CAT_ID   = 66417
ELEMENT_SET_NO = 999
REV_AT_EPOCH   = 139
BSTAR          = .23719985E-4
MEAN_MOTION_DOT = -.103E-5
MEAN_MOTION_DDOT = 0

CCSDS_OMM_VERS = 2.0
CREATION_DATE  = 
ORIGINATOR     = 

OBJECT_NAME    = HULIANWANG DIGUI 13G
OBJECT_ID      = 2025-258G
CENTER_NAME    = EARTH
REF_FRAME      = TEME
TIME_SYSTEM    = UTC
MEAN_ELEMENT_THEORY = SGP/SGP4

EPOCH          = 2025-11-19T19:49:39.386784
MEAN_MOTION    = 14.26082999
ECCENTRICITY   = .00121074
INCLINATION    = 50.0019
RA_OF_ASC_NODE = 358.4180
ARG_OF_PERICENTER = 277.8398
MEAN_ANOMALY   = 82.1142

EPHEMERIS_TYPE = 0
CLASSIFICATION_TYPE = U
NORAD_CAT_ID   = 66418
ELEMENT_SET_NO = 999
REV_AT_EPOCH   = 139
BSTAR          = .2364644E-4
MEAN_MOTION_DOT = -.103E-5
MEAN_MOTION_DDOT = 0

CCSDS_OMM_VERS = 2.0
CREATION_DATE  = 
ORIGINATOR     = 

OBJECT_NAME    = HULIANWANG DIGUI 13H
OBJECT_ID      = 2025-258H
CENTER_NAME    = EARTH
REF_FRAME      = TEME
TIME_SYSTEM    = UTC
MEAN_ELEMENT_THEORY = SGP/SGP4

EPOCH          = 2025-11-19T23:09:56.270304
MEAN_MOTION    = 14.26238534
ECCENTRICITY   = .00114986
INCLINATION    = 50.0017
RA_OF_ASC_NODE = 357.8175
ARG_OF_PERICENTER = 280.9346
MEAN_ANOMALY   = 79.0274

EPHEMERIS_TYPE = 0
CLASSIFICATION_TYPE = U
NORAD_CAT_ID   = 66419
ELEMENT_SET_NO = 999
REV_AT_EPOCH   = 141
BSTAR          = .15868948E-4
MEAN_MOTION_DOT = -.122E-5
MEAN_MOTION_DDOT = 0

CCSDS_OMM_VERS = 2.0
CREATION_DATE  = 
ORIGINATOR     = 

OBJECT_NAME    = HULIANWANG DIGUI 13J
OBJECT_ID      = 2025-258J
CENTER_NAME    = EARTH
REF_FRAME      = TEME
TIME_SYSTEM    = UTC
MEAN_ELEMENT_THEORY = SGP/SGP4

EPOCH          = 2025-11-19T23:08:51.433152
MEAN_MOTION    = 14.26345137
ECCENTRICITY   = .0010985
INCLINATION    = 50.0038
RA_OF_ASC_NODE = 357.8203
ARG_OF_PERICENTER = 285.6921
MEAN_ANOMALY   = 74.2781

EPHEMERIS_TYPE = 0
CLASSIFICATION_TYPE = U
NORAD_CAT_ID   = 66420
ELEMENT_SET_NO = 999
REV_AT_EPOCH   = 140
BSTAR          = .13951875E-4
MEAN_MOTION_DOT = -.127E-5
MEAN_MOTION_DDOT = 0

CCSDS_OMM_VERS = 2.0
CREATION_DATE  = 
ORIGINATOR     = 

OBJECT_NAME    = CZ-12 R/B
OBJECT_ID      = 2025-258K
CENTER_NAME    = EARTH
REF_FRAME      = TEME
TIME_SYSTEM    = UTC
MEAN_ELEMENT_THEORY = SGP/SGP4

EPOCH          = 2025-11-19T23:52:19.304832
MEAN_MOTION    = 14.42310582
ECCENTRICITY   = .00646233
INCLINATION    = 49.9958
RA_OF_ASC_NODE = 356.6453
ARG_OF_PERICENTER = 167.6763
MEAN_ANOMALY   = 192.5755

EPHEMERIS_TYPE = 0
CLASSIFICATION_TYPE = U
NORAD_CAT_ID   = 66421
ELEMENT_SET_NO = 999
REV_AT_EPOCH   = 143
BSTAR          = .28165563E-4
MEAN_MOTION_DOT = -.76E-6
MEAN_MOTION_DDOT = 0

